ONEWEB-0674             
1 55833U 23029AP  25169.79426081 -.00000153  00000+0 -44759-3 0  9992
2 55833  87.9028   2.0296 0001395 100.8681 259.2605 13.14501638111678
ONEWEB-0675             
1 55834U 23029AQ  25170.04479884  .00000087  00000+0  18478-3 0  9995
2 55834  87.9223  17.1868 0002089  81.1437 278.9932 13.19726896111737
ONEWEB-0720             
1 55835U 23029AR  25169.80945444 -.00000016  00000+0 -73447-4 0  9990
2 55835  87.9224  17.2301 0001992  99.1205 261.0153 13.19725016110916
ONEWEB-0537             
1 56046U 23043A   25170.08112333 -.00000036  00000+0 -12650-3 0  9996
2 56046  87.9050 301.1294 0001942  92.5986 267.5367 13.16593024112090
ONEWEB-0538             
1 56047U 23043B   25170.07478861 -.00000058  00000+0 -18595-3 0  9995
2 56047  87.9045 301.1504 0002194  98.5147 261.6233 13.16594182112109
ONEWEB-0546             
1 56048U 23043C   25169.37814175  .00000042  00000+0  77475-4 0  9993
2 56048  87.9056 301.2632 0001920  77.9091 282.2255 13.16594360111098
ONEWEB-0547             
1 56049U 23043D   25170.13379271  .00000071  00000+0  13979-3 0  9993
2 56049  87.9251 316.3876 0002109  99.4116 260.7257 13.21826448111173
ONEWEB-0548             
1 56050U 23043E   25169.40348122  .00000056  00000+0  11338-3 0  9994
2 56050  87.9039 301.2935 0001454 110.0390 250.0897 13.16593754111092
